NORAD_CAT_ID,OBJECT_NAME,OBJECT_TYPE,EPOCH,MEAN_MOTION,ECCENTRICITY,INCLINATION,RA_OF_ASC_NODE,ARG_OF_PERICENTER,MEAN_ANOMALY,BSTAR,MEAN_MOTION_DOT,MEAN_MOTION_DDOT,TLE_LINE0,TLE_LINE1,TLE_LINE2,SEMIMAJOR_AXIS,PERIOD,APOGEE,PERIGEE,DECAYED
55631.0,STARLINK-5558,PAYLOAD,2024-07-21 13:03:46,14.98329904,0.000314,69.9995,267.459,273.3915,86.6885,-1.5076e-05,-2.73e-06,0.0,0 STARLINK-5558,1 55631U 23021D   24203.54429315 -.00000273  00000-0 -15076-4 0  9999,2 55631  69.9995 267.4590 0003140 273.3915  86.6885 14.98329904 79006,6950.193,96.107,574.241,569.876,0.0
55631.0,STARLINK-5558,PAYLOAD,2024-07-22 05:05:07,14.9833142,0.000305,69.9995,265.7759,273.1363,86.9447,3.1438e-05,2.82e-06,0.0,0 STARLINK-5558,1 55631U 23021D   24204.21189087  .00000282  00000-0  31438-4 0  9991,2 55631  69.9995 265.7759 0003050 273.1363  86.9447 14.98331420 78809,6950.188,96.107,574.173,569.934,0.0
55631.0,STARLINK-5558,PAYLOAD,2024-07-22 08:17:23,14.98331169,0.0003063,69.9995,265.4393,273.0079,87.0729,2.8721e-05,2.5e-06,0.0,0 STARLINK-5558,1 55631U 23021D   24204.34541094  .00000250  00000-0  28721-4 0  9991,2 55631  69.9995 265.4393 0003063 273.0079  87.0729 14.98331169 79128,6950.189,96.107,574.183,569.925,0.0
55631.0,STARLINK-5558,PAYLOAD,2024-07-23 09:55:32,14.98333092,0.0003176,69.9991,262.7466,268.5632,91.5163,5.3025e-05,5.4e-06,0.0,0 STARLINK-5558,1 55631U 23021D   24205.41356659  .00000540  00000-0  53025-4 0  9998,2 55631  69.9991 262.7466 0003176 268.5632  91.5163 14.98333092 78986,6950.183,96.107,574.256,569.841,0.0
55631.0,STARLINK-5558,PAYLOAD,2024-07-24 05:09:09,14.98328281,0.0003111,69.9988,260.7261,264.6469,95.4335,-5.2666e-05,-7.21e-06,0.0,0 STARLINK-5558,1 55631U 23021D   24206.21469207 -.00000721  00000-0 -52666-4 0  9994,2 55631  69.9988 260.7261 0003111 264.6469  95.4335 14.98328281 79100,6950.198,96.107,574.225,569.901,0.0
55631.0,STARLINK-5558,PAYLOAD,2024-07-24 09:57:33,14.98325841,0.0003232,69.9986,260.2211,266.0382,94.0408,-7.3744e-05,-9.73e-06,0.0,0 STARLINK-5558,1 55631U 23021D   24206.41497443 -.00000973  00000-0 -73744-4 0  9998,2 55631  69.9986 260.2211 0003232 266.0382  94.0408 14.98325841 79433,6950.206,96.107,574.317,569.824,0.0
55631.0,STARLINK-5558,PAYLOAD,2024-07-25 05:11:10,14.98330223,0.0003253,69.9986,258.2018,266.5265,93.5522,1.0005e-06,-8.1e-07,0.0,0 STARLINK-5558,1 55631U 23021D   24207.21608973 -.00000081  00000-0  10005-5 0  9990,2 55631  69.9986 258.2018 0003253 266.5265  93.5522 14.98330223 79254,6950.192,96.107,574.318,569.796,0.0
55631.0,STARLINK-5558,PAYLOAD,2024-07-25 06:47:18,14.98331225,0.0003224,69.9987,258.0334,266.1875,93.8915,1.2183e-05,5.2e-07,0.0,0 STARLINK-5558,1 55631U 23021D   24207.28284877  .00000052  00000-0  12183-4 0  9995,2 55631  69.9987 258.0334 0003224 266.1875  93.8915 14.98331225 79561,6950.189,96.107,574.295,569.813,0.0
55631.0,STARLINK-5558,PAYLOAD,2024-07-25 09:59:34,14.9833175,0.0003215,69.9987,257.6968,266.1418,93.9373,1.8578e-05,1.29e-06,0.0,0 STARLINK-5558,1 55631U 23021D   24207.41636818  .00000129  00000-0  18578-4 0  9995,2 55631  69.9987 257.6968 0003215 266.1418  93.9373 14.98331750 79586,6950.187,96.107,574.287,569.818,0.0
55631.0,STARLINK-5558,PAYLOAD,2024-07-26 05:13:10,14.98329303,0.0003481,69.9978,255.6753,272.6051,87.4709,7.8779e-05,8.47e-06,0.0,0 STARLINK-5558,1 55631U 23021D   24208.21748738  .00000847  00000-0  78779-4 0  9995,2 55631  69.9978 255.6753 0003481 272.6051  87.4709 14.98329303 79409,6950.195,96.107,574.479,569.641,0.0
55631.0,STARLINK-5558,PAYLOAD,2024-07-26 10:01:35,14.98329779,0.0003312,69.998,255.1702,270.0735,90.0044,8.3807e-05,9.07e-06,0.0,0 STARLINK-5558,1 55631U 23021D   24208.41776678  .00000907  00000-0  83807-4 0  9996,2 55631  69.9980 255.1702 0003312 270.0735  90.0044 14.98329779 79730,6950.194,96.107,574.36,569.757,0.0
55631.0,STARLINK-5558,PAYLOAD,2024-07-27 05:15:11,14.98334466,0.0003362,69.9978,253.1508,271.8388,88.2386,-1.416e-05,-2.62e-06,0.0,0 STARLINK-5558,1 55631U 23021D   24209.21888542 -.00000262  00000-0 -14160-4 0  9991,2 55631  69.9978 253.1508 0003362 271.8388  88.2386 14.98334466 79554,6950.179,96.107,574.381,569.707,0.0
55631.0,STARLINK-5558,PAYLOAD,2024-07-27 06:51:19,14.98334279,0.0003364,69.9978,252.9825,271.8262,88.2512,-1.5625e-05,-2.8e-06,0.0,0 STARLINK-5558,1 55631U 23021D   24209.28564535 -.00000280  00000-0 -15625-4 0  9998,2 55631  69.9978 252.9825 0003364 271.8262  88.2512 14.98334279 79863,6950.18,96.107,574.383,569.707,0.0
55631.0,STARLINK-5558,PAYLOAD,2024-07-27 19:40:24,14.9833164,0.000353,69.9973,251.6349,274.066,86.0096,4.7275e-05,4.71e-06,0.0,0 STARLINK-5558,1 55631U 23021D   24209.81972407  .00000471  00000-0  47275-4 0  9994,2 55631  69.9973 251.6349 0003530 274.0660  86.0096 14.98331640 79948,6950.188,96.107,574.506,569.599,0.0
55631.0,STARLINK-5558,PAYLOAD,2024-07-28 05:17:12,14.98330212,0.0003241,69.9982,250.6258,272.3997,87.6791,-2.1462e-05,-3.49e-06,0.0,0 STARLINK-5558,1 55631U 23021D   24210.22028647 -.00000349  00000-0 -21462-4 0  9995,2 55631  69.9982 250.6258 0003241 272.3997  87.6791 14.98330212 79706,6950.192,96.107,574.31,569.805,0.0
55631.0,STARLINK-5558,PAYLOAD,2024-07-28 13:17:53,14.98329897,0.0003262,69.9981,249.7839,272.9222,87.1564,-2.0611e-05,-3.39e-06,0.0,0 STARLINK-5558,1 55631U 23021D   24210.55408657 -.00000339  00000-0 -20611-4 0  9998,2 55631  69.9981 249.7839 0003262 272.9222  87.1564 14.98329897 80059,6950.193,96.107,574.325,569.791,0.0
55631.0,STARLINK-5558,PAYLOAD,2024-07-29 05:19:13,14.98327831,0.000321,69.998,248.1012,267.6137,92.4654,-1.6598e-05,-2.91e-06,0.0,0 STARLINK-5558,1 55631U 23021D   24211.22168722 -.00000291  00000-0 -16598-4 0  9995,2 55631  69.9980 248.1012 0003210 267.6137  92.4654 14.98327831 79854,6950.2,96.107,574.296,569.834,0.0
55631.0,STARLINK-5558,PAYLOAD,2024-07-29 13:19:54,14.98328245,0.0003221,69.998,247.2592,269.2383,90.8406,-1.2117e-05,-2.38e-06,0.0,0 STARLINK-5558,1 55631U 23021D   24211.55548737 -.00000238  00000-0 -12117-4 0  9993,2 55631  69.9980 247.2592 0003221 269.2383  90.8406 14.98328245 80208,6950.198,96.107,574.302,569.825,0.0
55631.0,STARLINK-5558,PAYLOAD,2024-07-29 19:44:26,14.98336731,0.0003299,69.998,246.5861,270.7937,89.2844,-0.00011624,-1.48e-05,0.0,0 STARLINK-5558,1 55631U 23021D   24211.82252431 -.00001480  00000-0 -11624-3 0  9997,2 55631  69.9980 246.5861 0003299 270.7937  89.2844 14.98336731 80247,6950.172,96.107,574.33,569.744,0.0
55631.0,STARLINK-5558,PAYLOAD,2024-07-30 05:21:14,14.9833002,0.0003325,69.9978,245.5757,269.9802,90.0976,4.4275e-05,4.35e-06,0.0,0 STARLINK-5558,1 55631U 23021D   24212.22308445  .00000435  00000-0  44275-4 0  9995,2 55631  69.9978 245.5757 0003325 269.9802  90.0976 14.98330020 80003,6950.193,96.107,574.369,569.747,0.0
55631.0,STARLINK-5558,PAYLOAD,2024-07-30 11:45:46,14.98331794,0.0003341,69.9978,244.9023,269.9486,90.1291,4.4271e-05,4.35e-06,0.0,0 STARLINK-5558,1 55631U 23021D   24212.49012317  .00000435  00000-0  44271-4 0  9990,2 55631  69.9978 244.9023 0003341 269.9486  90.1291 14.98331794 80345,6950.187,96.107,574.374,569.73,0.0
55631.0,STARLINK-5558,PAYLOAD,2024-07-30 19:46:27,14.98323797,0.0003417,69.9974,244.06,268.2051,91.8717,0.00011204,1.244e-05,0.0,0 STARLINK-5558,1 55631U 23021D   24212.82392631  .00001244  00000-0  11204-3 0  9995,2 55631  69.9974 244.0600 0003417 268.2051  91.8717 14.98323797 80397,6950.212,96.107,574.452,569.702,0.0
55631.0,STARLINK-5558,PAYLOAD,2024-07-31 05:23:15,14.98327195,0.0003396,69.9974,243.0502,270.224,89.853,-8.4515e-06,-1.94e-06,0.0,0 STARLINK-5558,1 55631U 23021D   24213.22448767 -.00000194  00000-0 -84515-5 0  9994,2 55631  69.9974 243.0502 0003396 270.2240  89.8530 14.98327195 80156,6950.202,96.107,574.427,569.706,0.0
55631.0,STARLINK-5558,PAYLOAD,2024-07-31 11:47:48,14.98327438,0.0003394,69.9975,242.3772,270.8035,89.2735,-5.0275e-06,-1.53e-06,0.0,0 STARLINK-5558,1 55631U 23021D   24213.49152783 -.00000153  00000-0 -50275-5 0  9994,2 55631  69.9975 242.3772 0003394 270.8035  89.2735 14.98327438 80492,6950.201,96.107,574.425,569.707,0.0
55631.0,STARLINK-5558,PAYLOAD,2024-07-31 19:48:28,14.98329641,0.0003391,69.9976,241.5351,270.8241,89.2529,1.0211e-05,2.9e-07,0.0,0 STARLINK-5558,1 55631U 23021D   24213.82532627  .00000029  00000-0  10211-4 0  9995,2 55631  69.9976 241.5351 0003391 270.8241  89.2529 14.98329641 80548,6950.194,96.107,574.416,569.702,0.0
55631.0,STARLINK-5558,PAYLOAD,2024-08-01 11:49:48,14.98336118,0.0003436,69.9975,239.8519,271.2626,88.814,2.8716e-05,2.5e-06,0.0,0 STARLINK-5558,1 55631U 23021D   24214.49292027  .00000250  00000-0  28716-4 0  9991,2 55631  69.9975 239.8519 0003436 271.2626  88.8140 14.98336118 80647,6950.174,96.107,574.427,569.651,0.0
55631.0,STARLINK-5558,PAYLOAD,2024-08-02 05:27:17,14.98328334,0.0003403,69.9976,238.0002,271.284,88.7929,3.4669e-05,3.21e-06,0.0,0 STARLINK-5558,1 55631U 23021D   24215.22728412  .00000321  00000-0  34669-4 0  9998,2 55631  69.9976 238.0002 0003403 271.2840  88.7929 14.98328334 80452,6950.198,96.107,574.428,569.698,0.0
55631.0,STARLINK-5558,PAYLOAD,2024-08-02 11:51:49,14.98329354,0.0003412,69.9977,237.3269,271.3169,88.7599,3.5495e-05,3.3e-06,0.0,0 STARLINK-5558,1 55631U 23021D   24215.49432360  .00000330  00000-0  35495-4 0  9999,2 55631  69.9977 237.3269 0003412 271.3169  88.7599 14.98329354 80798,6950.195,96.107,574.431,569.688,0.0
55631.0,STARLINK-5558,PAYLOAD,2024-08-03 05:29:18,14.98332148,0.0003369,69.998,235.4753,271.6521,88.4252,-2.0376e-05,-3.36e-06,0.0,0 STARLINK-5558,1 55631U 23021D   24216.22868266 -.00000336  00000-0 -20376-4 0  9999,2 55631  69.9980 235.4753 0003369 271.6521  88.4252 14.98332148 80603,6950.186,96.107,574.393,569.71,0.0
55631.0,STARLINK-5558,PAYLOAD,2024-08-03 10:17:42,14.98332362,0.0003369,69.9981,234.9703,271.8069,88.2704,-1.8997e-05,-3.2e-06,0.0,0 STARLINK-5558,1 55631U 23021D   24216.42896217 -.00000320  00000-0 -18997-4 0  9997,2 55631  69.9981 234.9703 0003369 271.8069  88.2704 14.98332362 80936,6950.186,96.107,574.392,569.709,0.0
